#aV2020 11 25  0  0  0.00000000     288 DD+AD WGS84 FIT  NGA
## 2133 259200.00000000   300.00000000 59178 0.0000000000000
+   32     1  2  3  4  5  6  7  8  9 10 11 12 13 14 15 16 17
+         18 19 20 21 22 23 24 25 26 27 28 29 30 31 32  0  0
+          0  0  0  0  0  0  0  0  0  0  0  0  0  0  0  0  0
+          0  0  0  0  0  0  0  0  0  0  0  0  0  0  0  0  0
+          0  0  0  0  0  0  0  0  0  0  0  0  0  0  0  0  0
++         2  2  2  2  2  2  2  2  2  2  2  2  2  2  2  2  2
++         2  2  2  2  2  2  2  2  2  2  2  2  2  2  2  0  0
++         0  0  0  0  0  0  0  0  0  0  0  0  0  0  0  0  0
++         0  0  0  0  0  0  0  0  0  0  0  0  0  0  0  0  0
++         0  0  0  0  0  0  0  0  0  0  0  0  0  0  0  0  0
%c cc cc ccc ccc cccc cccc cccc cccc ccccc ccccc ccccc ccccc
%c cc cc ccc ccc cccc cccc cccc cccc ccccc ccccc ccccc ccccc
%f  0.0000000  0.000000000  0.00000000000  0.000000000000000
%f  0.0000000  0.000000000  0.00000000000  0.000000000000000
%i    0    0    0    0      0      0      0      0         0
%i    0    0    0    0      0      0      0      0         0
/*      NGA, ST. LOUIS,MO.                                  
/*   EPHEMERIS COMPUTED FROM 2 DAYS OF DATA                 
/*   EPOCHA v5 SMOOTHER                                     
/*   G1762 IERS2010 SATAF SATAPC                            
*  2020 11 25 18  5  0.00000000
P  1 -14960.318745    262.833687  21736.383109    803.626710                    
V  1  -7282.140882 -27113.369407  -4314.508047     -0.043453                    
P  2  14268.570990  20009.911845  -9429.397094   -546.929365                    
V  2   1892.803260  13044.440220  28577.416436     -0.046216                    
P  3 -21341.053644  10284.630003  11828.345672    -13.369888                    
V  3   8919.946281 -12485.779752  26857.768195     -0.100197                    
P  4 -24558.136996    352.423229 -10164.442217   -158.677223                    
V  4 -11710.015057  -5952.782106  28033.717378     -0.035030                    
P  5  13150.413783   8364.346808 -21673.799455    -26.782275                    
V  5 -18084.816511  20271.650981  -2991.544219     -0.009610                    
P  6   5236.967471  25847.189130   3028.690867     -2.331312                    
V  6  -3094.515251  -3038.847905  31943.488544     -0.012346                    
P  7  -8479.990021  17156.106858 -17878.702595   -421.511476                    
V  7  -8211.793911 -22190.998809 -17567.868557     -0.075700                    
P  8 -26144.282565  -5390.909977   1051.550971     -0.656665                    
V  8   -740.157412  -2572.250393 -31704.222062     -0.013741                    
P  9 -16376.797044   9731.088828 -18579.389210   -293.912852                    
V  9 -22503.270896  -6880.063783  16268.681030     -0.045872                    
P 10   8204.622954 -21513.723619  13097.931692     -1.286366                    
V 10  13127.512739 -10359.135039 -25675.998908     -0.090204                    
P 11 -21027.994940  -6366.374402  14213.440483    -98.722526                    
V 11 -10539.170448 -16324.040240 -22557.958061      0.105304                    
P 12  21438.238297  -6587.937626  13870.194846     35.474826                    
V 12 -12126.506339  13511.182374  24886.883552     -0.051802                    
P 13  22005.999833  13539.007112  -6548.957458     68.548777                    
V 13  -8409.326525   -775.585621 -30377.360091      0.038893                    
P 14  12586.166371 -20671.757925  10932.589578     46.956752                    
V 14  12210.234058  -7077.945030 -27428.343437      0.636611                    
P 15  26578.558890   2616.911830   1351.364649   -187.557857                    
V 15   1621.250321   3788.537934 -30719.151957      0.025964                    
P 16 -12489.376088  -8852.827739 -21966.728881   -241.498643                    
V 16  20600.038488 -17867.457331  -4111.519948     -0.053500                    
P 17   2086.650607  15805.739139  21680.773305    358.736970                    
V 17 -25355.349078  -7528.532487   8067.037616      0.051115                    
P 18   7312.554289 -18918.091775 -17127.614982    325.696765                    
V 18   7081.344802  20623.199052 -19817.915486      0.044433                    
P 19   9526.352834  16492.564741  18261.677899    -73.575375                    
V 19 -22671.179891  -6992.094900  17790.310269      0.050147                    
P 20  15074.551150 -21673.951787    816.594590    525.876422                    
V 20   3765.124438   1347.535992 -31340.997988     -0.001514                    
P 21 -17401.368567  -8181.966523  19215.524577     71.716920                    
V 21  -6711.565084 -21776.300539 -15601.475920      0.036316                    
P 22 -19520.708872   3133.366342  17860.023736   -724.789712                    
V 22  12442.226311 -18795.611628  17239.622823      0.055903                    
P 23  16010.629820 -20887.737695   3427.196051    104.272677                    
V 23   5016.987032  -1347.731461 -31407.256117      0.039802                    
P 24  16909.763713   3445.564646  20056.687798      5.937724                    
V 24   7727.403363  24810.013198 -10271.096790     -0.005481                    
P 25  19746.224037 -17207.332672   3172.330670     28.459516                    
V 25   -901.003093   5192.606241  31646.739297      0.067724                    
P 26  -2770.908476 -17909.071450 -19371.573239      4.626000                    
V 26  17632.912146 -17303.808044  13749.398794      0.059998                    
P 27 -21246.145919 -12574.100563 -10395.062659    -21.437712                    
V 27  12879.592278   1448.557702 -28141.695367     -0.082372                    
P 28  -8512.026690  20684.614227  15033.063855    651.067051                    
V 28 -14617.814700  10575.900905 -23581.573239     -0.047197                    
P 29  18436.730886  -6529.581770 -18027.655146   -243.652352                    
V 29  21241.964938   8206.447951  18744.119411     -0.075521                    
P 30  -1992.958241  24102.061834 -10684.403926   -341.752093                    
V 30  -6513.946937 -12541.337653 -27174.169957     -0.065106                    
P 31  -6298.411314 -25534.999606    345.473824    -83.691951                    
V 31   3369.616079   -325.202676  31976.857842     -0.023795                    
P 32  -2986.263978 -16028.978632  21080.254004      3.424105                    
V 32  25948.983820   5666.175391   7858.996225      0.030358                    
EOF
